{
  "type": "FeatureCollection",
  "features": [
    {
      "type": "Feature",
      "properties": {
        "norad_id": 57400,
        "name": "TIANMU-1 08",
        "group": "weather",
        "lat": 36.2351287371088,
        "lon": -126.98513237063014,
        "alt_km": 478.8962157898386,
        "timestamp": "2025-12-24T05:51:19.249164+00:00",
        "meta_object_name": "TIANMU-1 08",
        "meta_object_id": "2023-101B",
        "meta_epoch": "2025-12-23T22:56:41.768736",
        "meta_mean_motion": 15.2820699,
        "meta_eccentricity": 0.00070271,
        "meta_inclination": 97.2845,
        "meta_ra_of_asc_node": 47.3544,
        "meta_arg_of_pericenter": 52.2422,
        "meta_mean_anomaly": 307.9453,
        "meta_ephemeris_type": 0,
        "meta_classification_type": "U",
        "meta_norad_cat_id": 57400,
        "meta_element_set_no": 999,
        "meta_rev_at_epoch": 13486,
        "meta_bstar": 0.0002880281,
        "meta_mean_motion_dot": 7.851e-05,
        "meta_mean_motion_ddot": 0,
        "tle_line1": "1 57400U 23101B   25357.95603899  .00007851  00000+0  28803-3 0  9998",
        "tle_line2": "2 57400  97.2845  47.3544 0007027  52.2422 307.9453 15.28206990134868"
      },
      "geometry": {
        "type": "Point",
        "coordinates": [
          -126.98513237063014,
          36.2351287371088
        ]
      }
    },
    {
      "type": "Feature",
      "properties": {
        "norad_id": 57401,
        "name": "TIANMU-1 09",
        "group": "weather",
        "lat": -36.99571082458963,
        "lon": -138.3839922130887,
        "alt_km": 491.67050008212846,
        "timestamp": "2025-12-24T05:51:19.249175+00:00",
        "meta_object_name": "TIANMU-1 09",
        "meta_object_id": "2023-101C",
        "meta_epoch": "2025-12-23T22:37:19.744032",
        "meta_mean_motion": 15.28241498,
        "meta_eccentricity": 0.00062867,
        "meta_inclination": 97.2802,
        "meta_ra_of_asc_node": 46.8488,
        "meta_arg_of_pericenter": 53.2205,
        "meta_mean_anomaly": 306.9611,
        "meta_ephemeris_type": 0,
        "meta_classification_type": "U",
        "meta_norad_cat_id": 57401,
        "meta_element_set_no": 999,
        "meta_rev_at_epoch": 13486,
        "meta_bstar": 0.00028197164,
        "meta_mean_motion_dot": 7.691e-05,
        "meta_mean_motion_ddot": 0,
        "tle_line1": "1 57401U 23101C   25357.94258963  .00007691  00000+0  28197-3 0  9994",
        "tle_line2": "2 57401  97.2802  46.8488 0006286  53.2205 306.9611 15.28241498134866"
      },
      "geometry": {
        "type": "Point",
        "coordinates": [
          -138.3839922130887,
          -36.99571082458963
        ]
      }
    },
    {
      "type": "Feature",
      "properties": {
        "norad_id": 57402,
        "name": "TIANMU-1 10",
        "group": "weather",
        "lat": 28.413988277111468,
        "lon": 44.03488919915487,
        "alt_km": 474.7586971679866,
        "timestamp": "2025-12-24T05:51:19.249187+00:00",
        "meta_object_name": "TIANMU-1 10",
        "meta_object_id": "2023-101D",
        "meta_epoch": "2025-12-23T23:26:40.769664",
        "meta_mean_motion": 15.2823372,
        "meta_eccentricity": 0.00080177,
        "meta_inclination": 97.2883,
        "meta_ra_of_asc_node": 47.744,
        "meta_arg_of_pericenter": 50.5793,
        "meta_mean_anomaly": 309.6155,
        "meta_ephemeris_type": 0,
        "meta_classification_type": "U",
        "meta_norad_cat_id": 57402,
        "meta_element_set_no": 999,
        "meta_rev_at_epoch": 13486,
        "meta_bstar": 0.00028747949,
        "meta_mean_motion_dot": 7.844e-05,
        "meta_mean_motion_ddot": 0,
        "tle_line1": "1 57402U 23101D   25357.97686076  .00007844  00000+0  28748-3 0  9990",
        "tle_line2": "2 57402  97.2883  47.7440 0008017  50.5793 309.6155 15.28233720134862"
      },
      "geometry": {
        "type": "Point",
        "coordinates": [
          44.03488919915487,
          28.413988277111468
        ]
      }
    },
    {
      "type": "Feature",
      "properties": {
        "norad_id": 57490,
        "name": "FENGYUN 3F",
        "group": "weather",
        "lat": 46.7782765299987,
        "lon": -104.26450818415961,
        "alt_km": 820.9870380759112,
        "timestamp": "2025-12-24T05:51:19.249197+00:00",
        "meta_object_name": "FENGYUN 3F",
        "meta_object_id": "2023-111A",
        "meta_epoch": "2025-12-23T22:28:08.193216",
        "meta_mean_motion": 14.19896404,
        "meta_eccentricity": 8.112e-05,
        "meta_inclination": 98.7068,
        "meta_ra_of_asc_node": 66.0482,
        "meta_arg_of_pericenter": 116.1399,
        "meta_mean_anomaly": 243.9861,
        "meta_ephemeris_type": 0,
        "meta_classification_type": "U",
        "meta_norad_cat_id": 57490,
        "meta_element_set_no": 999,
        "meta_rev_at_epoch": 12399,
        "meta_bstar": 6.190362e-05,
        "meta_mean_motion_dot": 8.8e-07,
        "meta_mean_motion_ddot": 0,
        "tle_line1": "1 57490U 23111A   25357.93620594  .00000088  00000+0  61904-4 0  9992",
        "tle_line2": "2 57490  98.7068  66.0482 0000811 116.1399 243.9861 14.19896404123994"
      },
      "geometry": {
        "type": "Point",
        "coordinates": [
          -104.26450818415961,
          46.7782765299987
        ]
      }
    },
    {
      "type": "Feature",
      "properties": {
        "norad_id": 58584,
        "name": "ARKTIKA-M 2",
        "group": "weather",
        "lat": -0.9645283677094141,
        "lon": -5.883041501328366,
        "alt_km": 7187.87903490812,
        "timestamp": "2025-12-24T05:51:19.249211+00:00",
        "meta_object_name": "ARKTIKA-M 2",
        "meta_object_id": "2023-198A",
        "meta_epoch": "2025-12-23T19:04:51.780000",
        "meta_mean_motion": 2.00602438,
        "meta_eccentricity": 0.68658211,
        "meta_inclination": 63.2256,
        "meta_ra_of_asc_node": 173.6885,
        "meta_arg_of_pericenter": 268.0594,
        "meta_mean_anomaly": 18.8414,
        "meta_ephemeris_type": 0,
        "meta_classification_type": "U",
        "meta_norad_cat_id": 58584,
        "meta_element_set_no": 999,
        "meta_rev_at_epoch": 1480,
        "meta_bstar": 0,
        "meta_mean_motion_dot": 2.16e-06,
        "meta_mean_motion_ddot": 0,
        "tle_line1": "1 58584U 23198A   25357.79504375  .00000216  00000+0  00000+0 0  9992",
        "tle_line2": "2 58584  63.2256 173.6885 6865821 268.0594  18.8414  2.00602438 14808"
      },
      "geometry": {
        "type": "Point",
        "coordinates": [
          -5.883041501328366,
          -0.9645283677094141
        ]
      }
    },
    {
      "type": "Feature",
      "properties": {
        "norad_id": 58645,
        "name": "TIANMU-1 11",
        "group": "weather",
        "lat": 62.69139240486277,
        "lon": 3.168290042265854,
        "alt_km": 490.44789480497093,
        "timestamp": "2025-12-24T05:51:19.249222+00:00",
        "meta_object_name": "TIANMU-1 11",
        "meta_object_id": "2023-205A",
        "meta_epoch": "2025-12-23T23:16:36.422400",
        "meta_mean_motion": 15.24729348,
        "meta_eccentricity": 0.00075419,
        "meta_inclination": 97.3595,
        "meta_ra_of_asc_node": 17.3956,
        "meta_arg_of_pericenter": 262.3491,
        "meta_mean_anomaly": 97.6891,
        "meta_ephemeris_type": 0,
        "meta_classification_type": "U",
        "meta_norad_cat_id": 58645,
        "meta_element_set_no": 999,
        "meta_rev_at_epoch": 11080,
        "meta_bstar": 0.00025157285,
        "meta_mean_motion_dot": 6.161e-05,
        "meta_mean_motion_ddot": 0,
        "tle_line1": "1 58645U 23205A   25357.96986600  .00006161  00000+0  25157-3 0  9992",
        "tle_line2": "2 58645  97.3595  17.3956 0007541 262.3491  97.6891 15.24729348110808"
      },
      "geometry": {
        "type": "Point",
        "coordinates": [
          3.168290042265854,
          62.69139240486277
        ]
      }
    },
    {
      "type": "Feature",
      "properties": {
        "norad_id": 58646,
        "name": "TIANMU-1 12",
        "group": "weather",
        "lat": -82.55235671106597,
        "lon": 98.79249403038067,
        "alt_km": 495.8394093608922,
        "timestamp": "2025-12-24T05:51:19.249232+00:00",
        "meta_object_name": "TIANMU-1 12",
        "meta_object_id": "2023-205B",
        "meta_epoch": "2025-12-23T23:56:38.269824",
        "meta_mean_motion": 15.24616313,
        "meta_eccentricity": 0.00059356,
        "meta_inclination": 97.3583,
        "meta_ra_of_asc_node": 17.2247,
        "meta_arg_of_pericenter": 240.0419,
        "meta_mean_anomaly": 120.023,
        "meta_ephemeris_type": 0,
        "meta_classification_type": "U",
        "meta_norad_cat_id": 58646,
        "meta_element_set_no": 999,
        "meta_rev_at_epoch": 11079,
        "meta_bstar": 0.0002749559,
        "meta_mean_motion_dot": 6.716e-05,
        "meta_mean_motion_ddot": 0,
        "tle_line1": "1 58646U 23205B   25357.99766516  .00006716  00000+0  27496-3 0  9992",
        "tle_line2": "2 58646  97.3583  17.2247 0005935 240.0419 120.0230 15.24616313110799"
      },
      "geometry": {
        "type": "Point",
        "coordinates": [
          98.79249403038067,
          -82.55235671106597
        ]
      }
    }
  ]
}